[{"OBJECT_NAME":"STARLINK-3823","OBJECT_ID":"2022-045F","EPOCH":"2026-03-09T21:06:14.803200","MEAN_MOTION":15.08844003,"ECCENTRICITY":0.00011113,"INCLINATION":53.2166,"RA_OF_ASC_NODE":208.0666,"ARG_OF_PERICENTER":83.8114,"MEAN_ANOMALY":276.3005,"EPHEMERIS_TYPE":0,"CLASSIFICATION_TYPE":"U","NORAD_CAT_ID":52336,"ELEMENT_SET_NO":999,"REV_AT_EPOCH":21567,"BSTAR":3.2659351e-5,"MEAN_MOTION_DOT":2.32e-6,"MEAN_MOTION_DDOT":0},{"OBJECT_NAME":"AISAT","OBJECT_ID":"2014-034B","EPOCH":"2026-03-09T16:29:04.722144","MEAN_MOTION":15.06703825,"ECCENTRICITY":0.00089151,"INCLINATION":98.2441,"RA_OF_ASC_NODE":333.9816,"ARG_OF_PERICENTER":189.0234,"MEAN_ANOMALY":171.0832,"EPHEMERIS_TYPE":0,"CLASSIFICATION_TYPE":"U","NORAD_CAT_ID":40054,"ELEMENT_SET_NO":999,"REV_AT_EPOCH":63221,"BSTAR":0.00094770343,"MEAN_MOTION_DOT":0.00014038,"MEAN_MOTION_DDOT":0}]
